$$SOE
2461281.500000000, A.D. 2026-Aug-29 00:00:00.0000, -1.652864471034089E+09, -5.495676107472359E+09, -7.495139475447674E+08,
2461288.500000000, A.D. 2026-Sep-05 00:00:00.0000, -1.649878163656832E+09, -5.496318206688783E+09, -7.499921173987443E+08,
2461295.500000000, A.D. 2026-Sep-12 00:00:00.0000, -1.646891414085868E+09, -5.496958977298992E+09, -7.504700994458773E+08,
2461302.500000000, A.D. 2026-Sep-19 00:00:00.0000, -1.643904224589944E+09, -5.497598419994102E+09, -7.509478933953567E+08,
2461309.500000000, A.D. 2026-Sep-26 00:00:00.0000, -1.640916597059656E+09, -5.498236536047859E+09, -7.514254990044925E+08,
2461316.500000000, A.D. 2026-Oct-03 00:00:00.0000, -1.637928532937207E+09, -5.498873327081289E+09, -7.519029160690336E+08,
2461323.500000000, A.D. 2026-Oct-10 00:00:00.0000, -1.634940033232752E+09, -5.499508794920000E+09, -7.523801444140460E+08,
2461330.500000000, A.D. 2026-Oct-17 00:00:00.0000, -1.631951098575677E+09, -5.500142941525068E+09, -7.528571838884578E+08,
2461337.500000000, A.D. 2026-Oct-24 00:00:00.0000, -1.628961729276448E+09, -5.500775769019984E+09, -7.533340343672473E+08,
2461344.500000000, A.D. 2026-Oct-31 00:00:00.0000, -1.625971925300236E+09, -5.501407279880327E+09, -7.538106957756774E+08,
2461351.500000000, A.D. 2026-Nov-07 00:00:00.0000, -1.622981685813268E+09, -5.502037477212090E+09, -7.542871681604321E+08,
2461358.500000000, A.D. 2026-Nov-14 00:00:00.0000, -1.619991008101031E+09, -5.502666364231197E+09, -7.547634517533765E+08,
2461365.500000000, A.D. 2026-Nov-21 00:00:00.0000, -1.616999887670061E+09, -5.503293942262364E+09, -7.552395468058107E+08,
2461372.500000000, A.D. 2026-Nov-28 00:00:00.0000, -1.614008320531434E+09, -5.503920210265372E+09, -7.557154533472259E+08,
2461379.500000000, A.D. 2026-Dec-05 00:00:00.0000, -1.611016304046407E+09, -5.504545166545035E+09, -7.561911712539136E+08,
2461386.500000000, A.D. 2026-Dec-12 00:00:00.0000, -1.608023836169288E+09, -5.505168809533953E+09, -7.566667003880014E+08,
2461393.500000000, A.D. 2026-Dec-19 00:00:00.0000, -1.605030914974795E+09, -5.505791137641550E+09, -7.571420406330585E+08,
2461400.500000000, A.D. 2026-Dec-26 00:00:00.0000, -1.602037538612349E+09, -5.506412149037532E+09, -7.576171918839090E+08,
2461407.500000000, A.D. 2027-Jan-02 00:00:00.0000, -1.599043705411704E+09, -5.507031841560755E+09, -7.580921540313938E+08,
2461414.500000000, A.D. 2027-Jan-09 00:00:00.0000, -1.596049414023600E+09, -5.507650212733539E+09, -7.585669269510305E+08,
2461421.500000000, A.D. 2027-Jan-16 00:00:00.0000, -1.593054663561139E+09, -5.508267259872805E+09, -7.590415104980204E+08,
2461428.500000000, A.D. 2027-Jan-23 00:00:00.0000, -1.590059453697312E+09, -5.508882980337881E+09, -7.595159045160232E+08,
2461435.500000000, A.D. 2027-Jan-30 00:00:00.0000, -1.587063784532547E+09, -5.509497371962934E+09, -7.599901088808873E+08,
2461442.500000000, A.D. 2027-Feb-06 00:00:00.0000, -1.584067655809186E+09, -5.510110433334178E+09, -7.604641235905561E+08,
2461449.500000000, A.D. 2027-Feb-13 00:00:00.0000, -1.581071065934774E+09, -5.510722162692274E+09, -7.609379487594092E+08,
2461456.500000000, A.D. 2027-Feb-20 00:00:00.0000, -1.578074013179347E+09, -5.511332556251068E+09, -7.614115843650537E+08,
2461463.500000000, A.D. 2027-Feb-27 00:00:00.0000, -1.575076497651755E+09, -5.511941609146326E+09, -7.618850301384037E+08,
2461470.500000000, A.D. 2027-Mar-06 00:00:00.0000, -1.572078521037524E+09, -5.512549317091964E+09, -7.623582857169702E+08,
2461477.500000000, A.D. 2027-Mar-13 00:00:00.0000, -1.569080085698795E+09, -5.513155676694272E+09, -7.628313507472746E+08,
2461484.500000000, A.D. 2027-Mar-20 00:00:00.0000, -1.566081194265904E+09, -5.513760685258820E+09, -7.633042249012012E+08,
2461491.500000000, A.D. 2027-Mar-27 00:00:00.0000, -1.563081849518649E+09, -5.514364340638937E+09, -7.637769078698168E+08,
2461498.500000000, A.D. 2027-Apr-03 00:00:00.0000, -1.560082054354323E+09, -5.514966641173553E+09, -7.642493993572762E+08,
2461505.500000000, A.D. 2027-Apr-10 00:00:00.0000, -1.557081811781294E+09, -5.515567585691294E+09, -7.647216990786180E+08,
2461512.500000000, A.D. 2027-Apr-17 00:00:00.0000, -1.554081124916039E+09, -5.516167173595173E+09, -7.651938067646964E+08,
2461519.500000000, A.D. 2027-Apr-24 00:00:00.0000, -1.551079996904443E+09, -5.516765405090029E+09, -7.656657221866117E+08,
2461526.500000000, A.D. 2027-May-01 00:00:00.0000, -1.548078430467691E+09, -5.517362281524890E+09, -7.661374452248666E+08,
2461533.500000000, A.D. 2027-May-08 00:00:00.0000, -1.545076426765397E+09, -5.517957805101889E+09, -7.666089759502501E+08,
2461540.500000000, A.D. 2027-May-15 00:00:00.0000, -1.542073985072829E+09, -5.518551976998274E+09, -7.670803145012431E+08,
2461547.500000000, A.D. 2027-May-22 00:00:00.0000, -1.539071104836074E+09, -5.519144796493136E+09, -7.675514608262634E+08,
2461554.500000000, A.D. 2027-May-29 00:00:00.0000, -1.536067786749253E+09, -5.519736262567106E+09, -7.680224147184720E+08,
2461561.500000000, A.D. 2027-Jun-05 00:00:00.0000, -1.533064031968917E+09, -5.520326374843254E+09, -7.684931759682662E+08,
2461568.500000000, A.D. 2027-Jun-12 00:00:00.0000, -1.530059841473160E+09, -5.520915133437418E+09, -7.689637444139359E+08,
2461575.500000000, A.D. 2027-Jun-19 00:00:00.0000, -1.527055215896487E+09, -5.521502538652969E+09, -7.694341199363928E+08,
2461582.500000000, A.D. 2027-Jun-26 00:00:00.0000, -1.524050155560990E+09, -5.522088590781311E+09, -7.699043024447775E+08,
2461589.500000000, A.D. 2027-Jul-03 00:00:00.0000, -1.521044660571735E+09, -5.522673289999842E+09, -7.703742918641570E+08,
2461596.500000000, A.D. 2027-Jul-10 00:00:00.0000, -1.518038730939491E+09, -5.523256636358626E+09, -7.708440881277568E+08,
2461603.500000000, A.D. 2027-Jul-17 00:00:00.0000, -1.515032366694473E+09, -5.523838629894678E+09, -7.713136911799846E+08,
2461610.500000000, A.D. 2027-Jul-24 00:00:00.0000, -1.512025567834662E+09, -5.524419270936602E+09, -7.717831010094678E+08,
2461617.500000000, A.D. 2027-Jul-31 00:00:00.0000, -1.509018333697269E+09, -5.524998560364145E+09, -7.722523177303760E+08,
2461624.500000000, A.D. 2027-Aug-07 00:00:00.0000, -1.506010661954073E+09, -5.525576498670876E+09, -7.727213415993106E+08,
2461631.500000000, A.D. 2027-Aug-14 00:00:00.0000, -1.503002549531749E+09, -5.526153084083340E+09, -7.731901727773039E+08,
2461638.500000000, A.D. 2027-Aug-21 00:00:00.0000, -1.499993994838969E+09, -5.526728313100842E+09, -7.736588111685290E+08,
2461645.500000000, A.D. 2027-Aug-28 00:00:00.0000, -1.496984997869207E+09, -5.527302182252680E+09, -7.741272565520880E+08,
2461652.500000000, A.D. 2027-Sep-04 00:00:00.0000, -1.493975559360404E+09, -5.527874688570468E+09, -7.745955086941915E+08,
2461659.500000000, A.D. 2027-Sep-11 00:00:00.0000, -1.490965680406802E+09, -5.528445829436910E+09, -7.750635673669941E+08,
2461666.500000000, A.D. 2027-Sep-18 00:00:00.0000, -1.487955362389765E+09, -5.529015602461048E+09, -7.755314323396704E+08,
2461673.500000000, A.D. 2027-Sep-25 00:00:00.0000, -1.484944606998722E+09, -5.529584005457430E+09, -7.759991033693452E+08,
2461680.500000000, A.D. 2027-Oct-02 00:00:00.0000, -1.481933416267173E+09, -5.530151036501259E+09, -7.764665801967661E+08,
2461687.500000000, A.D. 2027-Oct-09 00:00:00.0000, -1.478921792601232E+09, -5.530716694063650E+09, -7.769338625493937E+08,
2461694.500000000, A.D. 2027-Oct-16 00:00:00.0000, -1.475909738737446E+09, -5.531280977281460E+09, -7.774009501624372E+08,
2461701.500000000, A.D. 2027-Oct-23 00:00:00.0000, -1.472897257369887E+09, -5.531843886366974E+09, -7.778678428422890E+08,
2461708.500000000, A.D. 2027-Oct-30 00:00:00.0000, -1.469884350071656E+09, -5.532405422546772E+09, -7.783345405570269E+08,
2461715.500000000, A.D. 2027-Nov-06 00:00:00.0000, -1.466871016674134E+09, -5.532965586401361E+09, -7.788010433551564E+08,
2461722.500000000, A.D. 2027-Nov-13 00:00:00.0000, -1.463857257089331E+09, -5.533524376681543E+09, -7.792673511002498E+08,
2461729.500000000, A.D. 2027-Nov-20 00:00:00.0000, -1.460843072673421E+09, -5.534081791787238E+09, -7.797334634662864E+08,
2461736.500000000, A.D. 2027-Nov-27 00:00:00.0000, -1.457828465513861E+09, -5.534637830944165E+09, -7.801993800997460E+08,
2461743.500000000, A.D. 2027-Dec-04 00:00:00.0000, -1.454813437663630E+09, -5.535192494164389E+09, -7.806651006881526E+08,
2461750.500000000, A.D. 2027-Dec-11 00:00:00.0000, -1.451797990873159E+09, -5.535745781954595E+09, -7.811306249632905E+08,
2461757.500000000, A.D. 2027-Dec-18 00:00:00.0000, -1.448782126544983E+09, -5.536297695111135E+09, -7.815959526919546E+08,
2461764.500000000, A.D. 2027-Dec-25 00:00:00.0000, -1.445765845759098E+09, -5.536848234603861E+09, -7.820610836682515E+08,
2461771.500000000, A.D. 2028-Jan-01 00:00:00.0000, -1.442749149327639E+09, -5.537397401534081E+09, -7.825260177099674E+08,
$$EOE